COSMOS 2251 DEB         
1 35476U 93036ALW 24316.41632302  .00034235  00000+0  65940-2 0  9995
2 35476  73.9808 111.8935 0019940 197.4444 191.3120 14.63254469820647
COSMOS 2251 DEB         
1 35580U 93036ALX 24314.79385953  .00016031  00000+0  11073-1 0  9998
2 35580  73.9031 134.2000 0286859 215.1769 143.0122 13.81173238567564
COSMOS 2251 DEB         
1 35583U 93036AMA 24316.25069918  .00002848  00000+0  26247-2 0  9995
2 35583  73.9181 134.0073 0386487 232.0309 124.5301 13.54164811770428
COSMOS 2251 DEB         
1 35584U 93036AMB 24316.26236638  .00355880  00000+0  29549-1 0  9996
2 35584  74.0563 254.6519 0027087 313.7192  46.1749 14.96541925799310
COSMOS 2251 DEB         
1 35585U 93036AMC 24316.34709587  .00009141  00000+0  69288-2 0  9995
2 35585  73.9721 289.0742 0318212 282.4716 146.0143 13.72739147586187
COSMOS 2251 DEB         
1 35586U 93036AMD 24315.49186875  .00001563  00000+0  14521-2 0  9990
2 35586  74.0209 218.4624 0407079 176.4188 357.1552 13.51254496550143
COSMOS 2251 DEB         
1 35587U 93036AME 24314.71670264  .00007886  00000+0  12295-2 0  9995
2 35587  74.0033 112.4599 0104588  38.4491 322.4071 14.69399603834580
COSMOS 2251 DEB         
1 35592U 93036AMK 24315.13795320  .00171677  00000+0  42295-2 0  9992
2 35592  73.9991 102.5950 0047369 315.3937  44.3461 15.38687766839993
COSMOS 2251 DEB         
1 35593U 93036AML 24316.20347504  .00010003  00000+0  42128-2 0  9999
2 35593  74.0861 280.8343 0104655  26.9965 333.6570 14.22887529794194
COSMOS 2251 DEB         
1 35594U 93036AMM 24315.02876716  .00041253  00000+0  60506-2 0  9992
2 35594  73.8124 182.7576 0039095   8.6698 351.5140 14.74817395822956
COSMOS 2251 DEB         
1 35602U 93036AMV 24316.35947027  .00025373  00000+0  99875-3 0  9990
2 35602  73.9995 304.1969 0118233 117.1182 312.5686 15.19188973840411
COSMOS 2251 DEB         
1 35605U 93036AMY 24315.04434369  .00076814  00000+0  10493-1 0  9991
2 35605  73.8942  70.9457 0065321  83.3684 277.4919 14.76669880600140
COSMOS 2251 DEB         
1 35606U 93036AMZ 24316.27692019  .00001398  00000+0  14023-2 0  9995
2 35606  73.8085 282.1218 0458302 189.8288 169.3617 13.40251649557266
COSMOS 2251 DEB         
1 35611U 93036ANE 24316.18316965  .00037718  00000+0  78233-2 0  9992
2 35611  74.0267 224.7897 0028974  37.9880 322.3321 14.59721311814764
COSMOS 2251 DEB         
1 35614U 93036ANH 24315.90685263  .00016023  00000+0  31112-2 0  9995
2 35614  73.9625  13.5268 0087325 319.1690  40.2953 14.60748306820251
COSMOS 2251 DEB         
1 35643U 93036ANJ 24314.52324562  .00672486  00000+0  23094-1 0  9996
2 35643  73.9832 243.6982 0025048 147.1436 213.1329 15.27330738827685
COSMOS 2251 DEB         
1 35645U 93036ANL 24315.75974286  .00018833  00000+0  59675-2 0  9993
2 35645  73.9666 107.2693 0077621 353.4747   6.5387 14.38304821814978
COSMOS 2251 DEB         
1 35646U 93036ANM 24315.77433113  .00001755  00000+0  17611-2 0  9994
2 35646  73.8724 325.4906 0459562 143.2439  27.5243 13.39826686765398
COSMOS 2251 DEB         
1 35647U 93036ANN 24315.26480615  .00009868  00000+0  30500-2 0  9993
2 35647  74.0247 312.4206 0047017 152.6400 207.7247 14.40734431807821
COSMOS 2251 DEB         
1 35650U 93036ANR 24316.60601329  .00033564  00000+0  56155-2 0  9997
2 35650  74.0499  74.8037 0019170 246.5203 124.7386 14.69547718817866
COSMOS 2251 DEB         
1 35660U 93036APB 24314.34879377  .00006476  00000+0  17517-2 0  9998
2 35660  74.0413 159.9537 0017599  47.0324 126.7542 14.47843898601001
COSMOS 2251 DEB         
1 35661U 93036APC 24315.82285110  .00016343  00000+0  20412-2 0  9991
2 35661  74.0165 146.1638 0101781 351.2973   8.6432 14.78704091819858
COSMOS 2251 DEB         
1 35663U 93036APE 24314.86827012  .00025114  00000+0  54693-2 0  9993
2 35663  74.0231 167.0827 0007665 338.5932  21.4910 14.57830050810447
COSMOS 2251 DEB         
1 35667U 93036APJ 24314.88132490  .00019998  00000+0  46697-2 0  9996
2 35667  74.0590 175.4191 0021856 334.3233  25.6843 14.54514316811333
COSMOS 2251 DEB         
1 35668U 93036APK 24314.59027015  .00008749  00000+0  16599-2 0  9991
2 35668  74.0445 263.7310 0083322 112.3990 248.6032 14.62113716819194
COSMOS 2251 DEB         
1 35669U 93036APL 24315.04170417  .00005036  00000+0  44187-2 0  9998
2 35669  73.8571  87.4904 0391555 267.8521  87.7716 13.55895044553961
COSMOS 2251 DEB         
1 35670U 93036APM 24315.77694332  .00030165  00000+0  39157-2 0  9999
2 35670  73.8979 142.2860 0047421 195.2120 164.7633 14.79820037818252
COSMOS 2251 DEB         
1 35671U 93036APN 24316.17155053  .00003619  00000+0  98478-3 0  9993
2 35671  74.0169 102.3324 0040938  10.6859 162.4134 14.47335619810237
COSMOS 2251 DEB         
1 35672U 93036APP 24316.12663573  .00479895  00000+0  15653-1 0  9995
2 35672  74.0343 257.7834 0012711 118.1947 253.2929 15.29602679818809
COSMOS 2251 DEB         
1 35674U 93036APR 24316.05083175  .00015631  00000+0  39571-2 0  9993
2 35674  74.0636 342.0093 0102838 130.4546 230.5638 14.47745275803564
COSMOS 2251 DEB         
1 35701U 93036APW 24312.51195284  .00005612  00000+0  40221-2 0  9998
2 35701  74.0055 254.0545 0298119 189.0462 170.5221 13.78144928782231
COSMOS 2251 DEB         
1 35703U 93036APY 24314.73269881  .00041125  00000+0  48917-2 0  9990
2 35703  74.0454 114.4357 0077640 291.0286  68.2600 14.82018971607029
COSMOS 2251 DEB         
1 35705U 93036AQA 24313.88165956  .00029869  00000+0  67807-2 0  9995
2 35705  74.2865 170.7630 0041458 244.4156 115.2721 14.55352402802433
COSMOS 2251 DEB         
1 35706U 93036AQB 24314.42994195  .00003911  00000+0  32808-2 0  9995
2 35706  73.8910   0.1518 0344737 122.5213 240.9708 13.64304422566264
COSMOS 2251 DEB         
1 35711U 93036AQG 24315.58358263  .00005634  00000+0  10712-2 0  9993
2 35711  74.0463 261.5485 0085411 105.3924 255.6700 14.62014861821163
COSMOS 2251 DEB         
1 35716U 93036AQM 24308.60508348  .00002879  00000+0  58317-3 0  9996
2 35716  73.9959 247.0569 0090890 187.2351 346.9120 14.59162192818891
COSMOS 2251 DEB         
1 35717U 93036AQN 24315.99773251  .00012656  00000+0  43798-2 0  9994
2 35717  74.1605 220.8396 0084982 190.9917 168.9382 14.33706949684039
COSMOS 2251 DEB         
1 35718U 93036AQP 24316.32661732  .00018986  00000+0  40035-2 0  9996
2 35718  74.0413 171.8784 0012350 327.6417  32.3989 14.59346431600372
COSMOS 2251 DEB         
1 35721U 93036AQS 24311.94803531  .00015472  00000+0  53378-2 0  9999
2 35721  73.9564 192.8427 0156784  67.4009 294.3640 14.29155181798261
COSMOS 2251 DEB         
1 35724U 93036AQV 24314.79028668  .00007164  00000+0  15684-2 0  9995
2 35724  74.0344 339.2121 0063071 234.1265 125.4033 14.56631325818265
COSMOS 2251 DEB         
1 35726U 93036AQX 24315.93893498  .00448713  00000+0  12624-1 0  9994
2 35726  74.0215 193.9324 0013138 114.7556 245.5018 15.34492093823840
COSMOS 2251 DEB         
1 35729U 93036ARA 24315.63360635  .00078132  00000+0  74795-2 0  9998
2 35729  74.0213 266.3193 0020388 162.5712  10.7275 14.92603605825700
COSMOS 2251 DEB         
1 35759U 93036ARD 24316.56301299  .00005618  00000+0  10592-2 0  9999
2 35759  74.0378 256.7454 0078028 117.5657 243.3464 14.62774606603389
COSMOS 2251 DEB         
1 35771U 93036ARR 24316.34222717  .00048104  00000+0  23932-1 0  9994
2 35771  74.1710 280.6622 0259859 321.1284  37.1408 14.00719336772812
COSMOS 2251 DEB         
1 35773U 93036ART 24316.58744293  .00009084  00000+0  19301-2 0  9990
2 35773  74.0127  18.5662 0052359 275.6976  83.8220 14.58332163810561
COSMOS 2251 DEB         
1 35775U 93036ARV 24311.40510301  .01040839  00000+0  15350-1 0  9992
2 35775  73.9960 199.3739 0024380 142.9409 217.3495 15.52413024825137
COSMOS 2251 DEB         
1 35777U 93036ARX 24316.54689676  .00000895  00000+0  91137-3 0  9992
2 35777  73.7700 235.3683 0453571 188.5755 346.4553 13.40605758743732
COSMOS 2251 DEB         
1 35784U 93036ASE 24315.17064549  .00005239  00000+0  13838-2 0  9992
2 35784  74.0379 115.4685 0042572 343.0957  16.8781 14.48593067599461
COSMOS 2251 DEB         
1 35786U 93036ASG 24315.65017899  .00018989  00000+0  39427-2 0  9991
2 35786  74.0174  86.3760 0040622 313.2401  46.5375 14.59581411821901
COSMOS 2251 DEB         
1 35789U 93036ASK 24316.21349270  .00001421  00000+0  49613-3 0  9990
2 35789  74.0373 291.9707 0047083 130.8248 229.7002 14.35532955555369
COSMOS 2251 DEB         
1 35793U 93036ASP 24316.17319172  .00037184  00000+0  67750-2 0  9994
2 35793  74.0428 112.0120 0006598 304.0581 229.0059 14.65839278599597
COSMOS 2251 DEB         
1 35796U 93036ASS 24310.98235804  .00053853  00000+0  86106-2 0  9996
2 35796  74.0006 199.8729 0022319  49.2922 311.0183 14.71344296658781
COSMOS 2251 DEB         
1 35824U 93036ASW 24315.87895421  .00009010  00000+0  60216-2 0  9998
2 35824  73.8473   9.9555 0256864 166.4876 194.3303 13.86309972787236
COSMOS 2251 DEB         
1 35825U 93036ASX 24291.21413770  .00003710  00000+0  27797-2 0  9991
2 35825  74.1139 114.3598 0359161 310.0999  46.9138 13.68447998773587
COSMOS 2251 DEB         
1 35829U 93036ATB 24312.97763663  .00027722  00000+0  53751-2 0  9999
2 35829  74.0303 154.5482 0008745 317.4200  42.6288 14.63110146820249
COSMOS 2251 DEB         
1 35830U 93036ATC 24316.56658552  .00007108  00000+0  31332-2 0  9997
2 35830  73.8617 265.1206 0127843 309.7348  49.2583 14.19258213556322
COSMOS 2251 DEB         
1 35834U 93036ATG 24315.18782154  .00001848  00000+0  95648-3 0  9990
2 35834  73.9317 291.7311 0111105 174.7190 197.4594 14.12497460606499
COSMOS 2251 DEB         
1 35835U 93036ATH 24312.48181528  .00006118  00000+0  41724-2 0  9999
2 35835  74.0628 220.3570 0297573  94.1500 269.3688 13.80759676778909
COSMOS 2251 DEB         
1 35836U 93036ATJ 24315.15037287  .00045011  00000+0  93928-2 0  9997
2 35836  74.0363 218.5420 0029323  16.9994 343.2146 14.59381649576954
COSMOS 2251 DEB         
1 35837U 93036ATK 24315.25526715  .00036191  00000+0  26618-1 0  9998
2 35837  73.7248 146.1815 0440779 122.8258 352.9173 13.57626868525682
